OBJECT_NAME,OBJECT_ID,EPOCH,MEAN_MOTION,ECCENTRICITY,INCLINATION,RA_OF_ASC_NODE,ARG_OF_PERICENTER,MEAN_ANOMALY,EPHEMERIS_TYPE,CLASSIFICATION_TYPE,NORAD_CAT_ID,ELEMENT_SET_NO,REV_AT_EPOCH,BSTAR,MEAN_MOTION_DOT,MEAN_MOTION_DDOT
STARLINK-31869,2024-124P,2026-06-18T09:46:58.736064,15.31704505,.0001232,53.1597,214.1382,79.3319,280.7821,0,U,60196,999,10972,-.44745E-5,-.504E-5,0
STARLINK-32023,2024-124Q,2026-06-18T06:30:18.066816,15.34388922,.0001169,53.1597,214.0021,96.7729,263.3407,0,U,60197,999,10971,-.20765E-4,-.1077E-4,0
STARLINK-32046,2024-124R,2026-06-18T19:37:37.583904,15.31709297,.00011439,53.1596,212.4280,90.0911,270.0222,0,U,60198,999,11101,-.53223089E-4,-.2017E-4,0
STARLINK-32049,2024-124S,2026-06-18T09:56:03.933024,15.34399556,.0001063,53.1601,213.4682,94.0907,266.0217,0,U,60199,999,11096,.2637E-4,.515E-5,0
STARLINK-32002,2024-124T,2026-06-18T06:45:46.567008,15.31703028,.0000917,53.1595,214.7721,93.4570,266.6537,0,U,60200,999,10970,.2111E-4,.29E-5,0
STARLINK-32020,2024-124U,2026-06-18T10:00:25.224768,15.31703025,.0001066,53.1596,214.1883,87.4240,272.6884,0,U,60201,999,10972,-.16721E-5,-.417E-5,0
STARLINK-32041,2024-124V,2026-06-18T13:15:04.934016,15.31703485,.0001198,53.1593,213.6119,79.9239,280.1897,0,U,60202,999,11094,.11508E-4,-.8E-7,0
STARLINK-32138,2024-131A,2026-06-18T15:54:55.570752,15.31711058,.00011399,53.1616,303.0308,100.5620,259.5510,0,U,60255,999,10748,-.11228339E-4,-.714E-5,0
STARLINK-32212,2024-131B,2026-06-18T18:56:15.396576,15.30198264,.00010531,53.1611,303.1121,77.7745,282.3374,0,U,60256,999,10719,-.5538627E-5,-.523E-5,0
STARLINK-32166,2024-131C,2026-06-18T20:39:25.121952,15.30198121,.00010354,53.1608,302.8384,93.6064,266.5056,0,U,60257,999,10720,.82084726E-4,.2073E-4,0
STARLINK-32200,2024-131D,2026-06-18T15:45:06.373728,15.30198022,.00010963,53.1615,303.6960,84.8899,275.2227,0,U,60258,999,10717,-.1668351E-4,-.853E-5,0
STARLINK-32207,2024-131E,2026-06-18T18:50:10.679712,15.30199744,.00011434,53.1620,303.0862,74.5580,285.5547,0,U,60259,999,10719,-.21539709E-4,-.997E-5,0
STARLINK-32125,2024-131F,2026-06-18T14:29:07.856160,15.30191746,.0001207,53.1627,303.3700,91.2532,268.8607,0,U,60260,999,10717,.15543E-4,.101E-5,0
STARLINK-32160,2024-131G,2026-06-18T18:57:45.733824,15.30207571,.0000992,53.1610,303.1033,82.9832,277.1281,0,U,60261,999,10724,.22316723E-4,.302E-5,0
STARLINK-32163,2024-131H,2026-06-18T18:29:14.275968,15.31711064,.00011566,53.1613,302.2732,94.9687,265.1446,0,U,60262,999,10720,.82959E-5,-.108E-5,0
STARLINK-32148,2024-131J,2026-06-18T22:24:07.581312,15.31786558,.00010888,53.1609,301.8676,124.0550,236.0555,0,U,60263,999,10727,.13174138E-3,.3736E-4,0
STARLINK-32121,2024-131K,2026-06-18T15:07:32.462112,15.31700944,.00013895,53.1624,303.5350,89.0329,271.0832,0,U,60264,999,10722,-.15155008E-4,-.835E-5,0
STARLINK-32120,2024-131L,2026-06-18T14:36:25.148160,15.29347680,.0001294,53.1618,304.1076,88.7131,271.4018,0,U,60265,999,10721,.19365325E-3,.5235E-4,0
STARLINK-32205,2024-131M,2026-06-17T15:31:53.940576,15.31693982,.00013863,53.1619,308.0751,75.0288,285.0867,0,U,60266,999,10702,.870884E-4,.2338E-4,0
STARLINK-32158,2024-131N,2026-06-18T18:00:01.491264,15.30196439,.00011929,53.1624,302.8547,91.1249,268.9889,0,U,60267,999,10709,.15890478E-4,.111E-5,0
STARLINK-32167,2024-131P,2026-06-18T14:30:39.096288,15.30191183,.000099,53.1615,303.3844,101.0630,259.0482,0,U,60268,999,10716,.8856E-5,-.97E-6,0
STARLINK-32144,2024-131Q,2026-06-18T18:42:40.879584,15.31709640,.00013033,53.1620,302.3300,77.1752,282.9395,0,U,60269,999,10725,.21536334E-4,.303E-5,0
STARLINK-32211,2024-131R,2026-06-18T15:52:42.847392,15.30195018,.00010375,53.1603,303.7391,73.5594,286.5521,0,U,60270,999,10717,.12077434E-3,.3219E-4,0
STARLINK-32164,2024-131S,2026-06-18T14:24:44.077824,15.30188306,.0001204,53.1599,304.0521,40.8769,319.2322,0,U,60271,999,10706,-.31064E-4,-.1279E-4,0
STARLINK-32128,2024-131T,2026-06-18T17:55:27.709536,15.30201052,.00010173,53.1607,302.8394,97.4698,262.6419,0,U,60272,999,10719,-.7132508E-5,-.57E-5,0
STARLINK-32206,2024-131U,2026-06-18T18:51:41.677056,15.30201844,.00011821,53.1625,303.0900,74.9051,285.2081,0,U,60273,999,10719,-.9504414E-5,-.641E-5,0
STARLINK-32155,2024-131V,2026-06-18T16:28:32.389536,15.31709837,.00013062,53.1617,303.1736,71.8919,288.2224,0,U,60274,999,10708,.40459113E-4,.891E-5,0
STARLINK-32152,2024-131W,2026-06-18T17:50:54.143808,15.30201969,.00012718,53.1630,302.8134,93.9401,266.1745,0,U,60275,999,10709,.13365098E-4,.37E-6,0
STARLINK-32154,2024-131X,2026-06-18T14:33:41.364000,15.30189586,.0001125,53.1615,303.3809,96.4122,263.7007,0,U,60276,999,10717,.72652E-5,-.144E-5,0
STARLINK-32135,2024-131Y,2026-06-18T16:32:03.395616,15.30192227,.0001176,53.1615,303.1832,85.5213,274.5922,0,U,60277,999,10718,-.7798542E-5,-.59E-5,0
STARLINK-32156,2024-132A,2026-06-18T17:52:27.039360,15.30203467,.00011726,53.1617,302.9513,78.8900,281.2233,0,U,60278,999,10825,.7243768E-5,-.145E-5,0
STARLINK-32010,2024-132B,2026-06-18T14:33:57.786048,15.31689235,.0000809,53.1610,303.5195,106.6578,253.4512,0,U,60279,999,10701,-.51564E-4,-.1964E-4,0
STARLINK-32118,2024-132C,2026-06-18T16:09:17.269056,15.30199400,.00009924,53.1619,303.2143,105.8390,254.2720,0,U,60280,999,10702,-.7127149E-5,-.57E-5,0
STARLINK-32038,2024-132D,2026-06-18T14:38:16.435680,15.30194646,.00011857,53.1613,303.5298,95.3469,264.7667,0,U,60281,999,10701,.8066886E-5,-.12E-5,0
STARLINK-32113,2024-132E,2026-06-18T17:47:53.624832,15.30198006,.000099,53.1617,302.9311,100.3160,259.7952,0,U,60282,999,10703,-.10928775E-4,-.683E-5,0
STARLINK-32037,2024-132F,2026-06-18T17:55:18.329952,15.31713105,.00006224,53.1604,302.9651,72.2183,287.8886,0,U,60283,999,10703,.41352716E-4,.919E-5,0
STARLINK-32123,2024-132G,2026-06-18T15:13:56.870400,15.30200029,.00012666,53.1612,290.9167,82.8503,277.2642,0,U,60284,999,10719,-.5990156E-5,-.537E-5,0
STARLINK-32122,2024-132H,2026-06-18T18:07:38.773632,15.30201083,.00012361,53.1611,303.0196,78.7781,281.3359,0,U,60285,999,10703,.8158756E-5,-.118E-5,0
STARLINK-31656,2024-132J,2026-06-18T14:26:06.791136,15.30198147,.0001311,53.1624,303.4878,101.7684,258.3464,0,U,60286,999,10701,.44592E-4,.962E-5,0
STARLINK-32114,2024-132K,2026-06-18T18:02:02.937696,15.31685618,.00008687,53.1604,302.9938,91.8586,268.2515,0,U,60287,999,10703,.79022762E-4,.2087E-4,0
STARLINK-31997,2024-132L,2026-06-18T18:54:35.759232,15.30201857,.00010785,53.1612,302.5055,70.0794,290.0323,0,U,60288,999,10704,-.3241044E-5,-.455E-5,0
STARLINK-32000,2024-132M,2026-06-17T16:11:36.641760,15.31710662,.00011162,53.1621,307.6544,89.8382,270.2747,0,U,60289,999,10687,.55408319E-4,.1355E-4,0
STARLINK-32141,2024-132N,2026-06-18T17:58:31.872864,15.30198535,.00012321,53.1616,302.9769,96.5953,263.5188,0,U,60290,999,10703,.3945122E-5,-.242E-5,0
STARLINK-32142,2024-132P,2026-06-18T15:54:01.455840,15.30244122,.00012868,53.1607,303.1474,90.4525,269.6623,0,U,60291,999,10702,.43481074E-3,.12558E-3,0
STARLINK-32149,2024-132Q,2026-06-18T16:15:07.341120,15.31710705,.00010354,53.1611,303.2462,98.6772,261.4347,0,U,60292,999,10702,-.31618347E-4,-.1346E-4,0
STARLINK-32159,2024-132R,2026-06-18T20:33:12.121056,15.30210108,.00009533,53.1609,302.2224,83.6954,276.4155,0,U,60293,999,10705,.48018529E-4,.1064E-4,0
STARLINK-32150,2024-132S,2026-06-18T17:55:47.957376,15.31705418,.00012034,53.1610,302.9656,126.4270,233.6842,0,U,60294,999,10703,-.17719316E-4,-.915E-5,0
STARLINK-32126,2024-132T,2026-06-18T14:27:43.064064,15.31704805,.0001058,53.1622,303.4850,90.3360,269.7763,0,U,60295,999,10701,.12811E-4,.33E-6,0
STARLINK-32143,2024-132U,2026-06-18T18:56:08.644416,15.31715333,.00010218,53.1615,302.5189,83.8336,276.2782,0,U,60296,999,10704,.38780674E-4,.839E-5,0
STARLINK-32034,2024-132V,2026-06-18T15:27:35.189856,15.31708913,.00011594,53.1629,303.0371,90.0992,270.0142,0,U,60297,999,10702,-.76404857E-4,-.2736E-4,0
STARLINK-32124,2024-132W,2026-06-18T18:49:25.860576,15.31711932,.00011644,53.1621,302.4915,74.6974,285.4156,0,U,60298,999,10704,-.5199951E-5,-.527E-5,0
STARLINK-32151,2024-132X,2026-06-18T17:02:55.638816,15.30197904,.00012425,53.1616,274.7534,78.6311,281.4829,0,U,60299,999,10742,-.3193976E-5,-.454E-5,0
STARLINK-32134,2024-132Y,2026-06-18T18:01:34.175136,15.30207227,.00011872,53.1612,302.9890,92.2157,267.8980,0,U,60300,999,10703,-.61826669E-4,-.219E-4,0
STARLINK-11147 [DTC],2024-133A,2026-06-18T19:29:59.018496,15.69699752,.00008649,53.1585,7.9450,75.9541,284.1573,0,U,60301,999,10961,-.397352E-5,-.1069E-4,0
STARLINK-11128 [DTC],2024-133B,2026-06-18T17:51:12.551328,15.69715078,.00009074,53.1596,8.2240,98.9959,261.1161,0,U,60302,999,10960,.7448008E-5,.314E-5,0
STARLINK-11227 [DTC],2024-133C,2026-06-18T17:44:08.800800,15.69737702,.00010253,53.1600,8.1894,80.3038,279.8096,0,U,60303,999,10968,-.5463904E-4,-.721E-4,0
STARLINK-11224 [DTC],2024-133D,2026-06-18T19:08:46.950432,15.69701894,.00009846,53.1594,7.8428,77.1036,283.0092,0,U,60304,999,10969,-.6758208E-5,-.1407E-4,0
STARLINK-11115 [DTC],2024-133E,2026-06-18T17:30:01.616832,15.69710753,.00010849,53.1602,8.1247,83.3696,276.7446,0,U,60305,999,10960,-.524134E-5,-.1223E-4,0
STARLINK-11109 [DTC],2024-133F,2026-06-18T18:54:38.810016,15.69705718,.00007917,53.1598,7.7748,89.7623,270.3485,0,U,60306,999,10961,.1020202E-5,-.464E-5,0
STARLINK-11223 [DTC],2024-133G,2026-06-18T20:12:12.681216,15.69699451,.00009724,53.1595,7.3978,63.5810,296.5308,0,U,60307,999,10962,-.1481267E-5,-.768E-5,0
STARLINK-11192 [DTC],2024-133H,2026-06-18T20:19:15.652416,15.69716174,.00012505,53.1598,7.4303,73.0999,287.0156,0,U,60308,999,10962,.22142885E-4,.2095E-4,0
STARLINK-11213 [DTC],2024-133J,2026-06-18T23:08:30.607296,15.69704203,.00010324,53.1591,6.7373,76.2861,283.8272,0,U,60309,999,10964,-.1316645E-5,-.748E-5,0
STARLINK-11200 [DTC],2024-133K,2026-06-18T23:01:26.523264,15.69710192,.00009407,53.1580,6.7048,75.6450,284.4672,0,U,60310,999,10964,.846818E-5,.438E-5,0
STARLINK-11206 [DTC],2024-133M,2026-06-18T18:12:24.785280,15.69699714,.00010127,53.1595,8.3165,117.8525,242.2596,0,U,60312,999,10960,.408821E-6,-.539E-5,0
